spkid,pdes,full_name,neo,pha,H,epoch,e,a,q,i,om,w,ma,tp,per_y,moid,sigma_e,sigma_a,sigma_q,sigma_i,sigma_om,sigma_w,sigma_ma,condition_code,n_obs_used,data_arc
20506732,506732,506732 (2006 VW2),Y,Y,21.32,2461200.5,0.2944937773080405,1.235855720785387,0.8719039013635472,10.05009841699386,229.7578231686854,299.6873679217446,0.4737878665344771,2461199.839562813,1.3739149861202,0.0155429,9.8466e-08,2.7886e-09,1.2046e-07,8.3288e-06,2.1921e-05,2.7837e-05,1.8306e-05,0.0,158,6870.0
20506859,506859,506859 (2007 VW137),Y,Y,18.25,2461200.5,0.73506649049796,2.235947818252611,0.5923775025530936,5.833050093769917,297.3876239474159,247.4793417392642,168.4780844366852,2460628.9794668434,3.34349515455892,0.0322349,3.836e-08,2.0527e-08,8.3591e-08,7.4414e-06,6.3564e-05,6.3722e-05,1.506e-05,0.0,230,3931.0
20507716,507716,507716 (2013 UP8),Y,Y,16.35,2461200.5,0.6190903795670463,2.534557897460023,0.9654374866868424,47.83484886870739,55.15904326629273,187.3443309599889,105.1355191356261,2460770.0737849283,4.03516712632173,0.0422866,8.5844e-08,3.7329e-08,2.2001e-07,1.3692e-05,1.2784e-05,1.6299e-05,7.0686e-06,0.0,221,4362.0
20508774,508774,508774 (1999 JE1),Y,Y,20.08,2461200.5,0.7017251068366973,1.32316752915177,0.3946676533948953,20.91206351422937,53.04665887683905,302.7425505760332,242.6449762927325,2461381.725732407,1.52205537897134,0.0245657,9.1415e-08,5.8013e-09,1.1965e-07,1.3417e-05,1.2597e-05,1.4335e-05,3.0512e-05,0.0,161,7941.0
20508908,508908,508908 (2003 YX1),Y,Y,20.95,2461200.5,0.2670439026028102,0.879674831003579,0.6447630311109157,5.75544065047048,89.61339508424741,223.1442047671632,194.0478831636369,2461339.4191035023,0.825071245152127,0.0115187,7.5908e-08,7.9262e-10,6.7317e-08,4.2905e-06,9.7422e-06,1.5308e-05,2.0769e-05,0.0,433,7009.0
20508967,508967,508967 (2004 VC17),Y,Y,18.49,2461200.5,0.8108675207884154,1.89575154152721,0.3585481890182244,20.38021583738361,229.1100625423754,65.24264359097674,114.1929091817542,2460898.0823112074,2.61023932891674,0.00211867,6.4645e-08,3.0312e-09,1.2257e-07,1.6028e-05,1.1737e-05,1.6156e-05,5.1414e-06,0.0,447,7710.0
20509191,509191,509191 (2006 OC5),Y,Y,19.25,2461200.5,0.6520574466281707,2.400604940963426,0.8352726127958441,4.745231690315435,149.0868587494003,245.7918644499588,104.3259420003547,2460806.7964920974,3.71954010480936,0.0142153,4.1711e-08,5.7351e-09,9.8783e-08,1.0372e-05,3.7897e-05,3.9204e-05,6.5233e-06,0.0,205,4211.0
20509352,509352,509352 (2007 AG),Y,Y,20.14,2461200.5,0.3744035024326513,0.7205693658312652,0.4507856715183651,11.94152038722367,283.2031237602239,5.71951446718595,79.16312937691599,2461151.37160548,0.611676638854428,0.00375064,2.5153e-08,3.1798e-09,1.9765e-08,5.8137e-06,4.4912e-06,1.2335e-05,1.9372e-05,0.0,279,6946.0
20509456,509456,509456 (2007 LF),Y,Y,20.57,2461200.5,0.4197211506066338,1.682459746256516,0.9762958057083858,6.993253987020462,239.3870487600075,333.8838449404496,270.5072006864062,2461398.6531782206,2.18235413447095,0.00353651,1.125e-07,8.5336e-09,1.9349e-07,6.9561e-06,3.5071e-05,6.0772e-05,3.7142e-05,0.0,325,4108.0
20509821,509821,509821 (2008 WQ63),Y,Y,20.18,2461200.5,0.6072608010192956,1.733351025532126,0.6807548933198699,0.9173366536114952,317.0603781466602,229.0437833890803,207.65524859584,2461553.238777313,2.28211741381419,0.00797448,3.5468e-08,1.466e-09,6.1482e-08,6.4346e-06,0.00032969,0.00032938,4.6297e-06,0.0,241,8412.0
20509935,509935,509935 (2009 QL8),Y,Y,19.42,2461200.5,0.5409693692433211,1.931327860507419,0.8865386460066679,4.240496987685409,84.46244287797646,339.6823009476581,63.01355088153812,2461028.9013418006,2.68405994179786,0.0282502,1.8924e-08,1.8804e-09,3.6045e-08,4.2823e-06,6.9976e-05,6.9069e-05,2.9392e-06,0.0,414,6056.0
20510055,510055,510055 (2010 FH81),Y,Y,21.46,2461200.5,0.2103467872597209,1.225508642354482,0.9677268366761944,16.79460182990896,84.59955036031343,158.3274125449068,299.6764487421219,2461283.534274247,1.35669670322597,0.0353102,8.8111e-08,5.378e-09,1.0584e-07,9.7043e-06,2.149e-05,3.4487e-05,4.5076e-05,0.0,105,5692.0
20510529,510529,510529 (2012 EY11),Y,Y,21.58,2461200.5,0.1507539809091398,1.14841441148471,0.9752863672199628,9.020852860490134,167.5749158746222,238.8889340280286,305.5769748689822,2461268.4558040574,1.23071120037298,0.0282007,1.4809e-07,1.3823e-08,1.8019e-07,4.2392e-06,2.4582e-05,3.908e-05,6.2065e-05,0.0,154,8054.0
20511008,511008,511008 (2013 PX6),Y,Y,18.55,2461200.5,0.6513600459141189,2.596378885418449,0.9052014154018394,13.65747577391292,187.3427316654368,229.7516019182411,6.832271427197649,2461171.4989888407,4.18369778589433,0.0295846,2.8737e-08,2.8854e-08,7.4781e-08,1.0872e-05,2.2755e-05,2.317e-05,1.882e-05,0.0,451,2998.0
20511684,511684,511684 (2015 BN509),Y,Y,20.77,2461200.5,0.5684228983289809,1.006859710882502,0.4345375958119904,4.156586497443702,120.0602942523542,143.2241814581194,31.5502298541488,2461168.1591151343,1.01032627332211,0.0246931,1.2322e-07,7.9785e-09,1.2199e-07,3.9135e-06,1.8909e-05,2.0669e-05,1.6326e-05,0.0,592,7342.0
20512234,512234,512234 (2015 VO66),Y,Y,20.62,2461200.5,0.5999621451649866,0.952141174344413,0.3808925128848295,14.02164401809247,64.44797420581686,219.3311162455227,207.4817395895441,2461344.2705017906,0.929095211001283,0.0433322,3.1717e-07,3.8858e-08,3.1704e-07,8.8203e-06,1.6778e-05,2.5395e-05,0.00025897,1.0,318,1873.0
20513126,513126,513126 (1998 QP),Y,Y,21.71,2461200.5,0.5824886260904161,1.786021176606626,0.7456841552766442,9.35073283638904,326.4146917163039,78.47614895700043,213.6817705613463,2461554.843335737,2.3869213451954,0.0138762,5.5806e-08,6.7026e-09,9.7068e-08,1.8457e-05,6.1337e-06,1.5206e-05,3.0853e-05,0.0,257,7128.0
20513171,513171,513171 (2004 MD6),Y,Y,20.48,2461200.5,0.5630873441955118,0.9508849727194132,0.4154536787954172,29.3174307330409,263.8344317939755,231.4635974922653,324.9735145834427,2461233.4522037525,0.927257123490474,0.00908725,3.8025e-07,3.1898e-09,3.6227e-07,5.6452e-05,2.2256e-05,2.9182e-05,3.2414e-05,0.0,174,5954.0
20513312,513312,513312 (2007 DM41),Y,Y,22.06,2461200.5,0.527683752778621,1.181103895243509,0.5578545593799671,2.264045813783411,1.658087063918582,274.5711683641632,312.3929321395874,2461262.501116856,1.2836314672919,0.0074645,2.1779e-08,3.1204e-09,2.5828e-08,3.3501e-06,4.4984e-05,4.3751e-05,7.4672e-06,0.0,221,6579.0
20513489,513489,513489 (2009 EV),Y,Y,20.12,2461200.5,0.523271639234821,1.728553443050878,0.8240504494006513,17.00162938276837,138.5388203871957,250.2738891971216,285.7250530862041,2461371.7625844334,2.27264927932113,0.0309166,1.6034e-07,1.1276e-08,2.7491e-07,2.6663e-05,1.945e-05,3.3074e-05,2.6806e-05,0.0,133,6532.0
20514150,514150,514150 (2015 KJ57),Y,Y,21.53,2461200.5,0.4041394348930438,1.558844707765468,0.9288540884831198,2.627442708980749,14.37133249438827,336.4675687745506,183.5120958823958,2461549.009925401,1.94631209547846,0.0125634,2.434e-08,1.424e-08,3.8595e-08,4.4068e-06,0.00017368,0.00017121,2.1739e-05,0.0,164,994.0
20514568,514568,514568 (1994 RC),Y,Y,19.22,2461200.5,0.6033620099128485,2.26396320415303,0.8979738149265253,4.757263178103488,344.2359244938859,286.5602224834903,127.1574820692044,2460761.0171909374,3.4065302383407,0.0380037,5.6438e-08,6.3724e-09,1.2961e-07,1.6667e-05,9.1914e-05,9.3642e-05,6.1337e-06,0.0,132,8979.0
20514596,514596,514596 (2003 FG),Y,Y,19.71,2461200.5,0.7151435329271155,1.24150775207919,0.3536515121008765,15.66836122352366,6.937002896755159,312.9581081188559,233.8316183236221,2461377.5804480407,1.38335089616566,0.0436353,3.0979e-08,6.416e-10,3.8344e-08,6.4229e-06,7.1863e-06,8.216e-06,5.2362e-06,0.0,629,9182.0
20515767,515767,515767 (2015 JA2),Y,Y,21.18,2461200.5,0.349129674417395,1.033902343858353,0.6729363551677049,16.42228107309267,126.5981879660098,246.256896486334,76.37103763879186,2461119.0400953814,1.05130197932096,0.0426418,2.9772e-07,2.9703e-08,2.889e-07,9.6772e-06,9.971e-06,1.4844e-05,0.00015192,1.0,172,1738.0
20516154,516154,516154 (2016 CL32),Y,Y,19.35,2461200.5,0.4600168558945048,1.5431016875576,0.8332489009218483,12.21571992451641,123.4873593349711,292.9571478293413,162.7910097151535,2460883.894713409,1.91690249027468,0.0243701,2.9366e-08,7.5802e-09,4.7146e-08,6.1255e-06,1.4223e-05,1.5744e-05,1.2716e-05,0.0,294,7680.0
20516155,516155,516155 (2016 DP),Y,Y,20.08,2461200.5,0.4773198016279325,1.022562050317735,0.5344729353078219,13.30584972609486,54.33025642258907,254.0339969862079,244.8693318565333,2461321.2873512283,1.03405278531782,0.0322499,6.6288e-08,3.5242e-09,6.6065e-08,2.8686e-06,1.0572e-05,9.9447e-06,7.1466e-06,0.0,614,3617.0
20517103,517103,517103 (2013 EM20),Y,Y,19.92,2461200.5,0.3179297289479865,1.371279164319584,0.9353087512954368,8.363424707592849,73.87956933052642,350.1655859672738,165.4517051197593,2460930.9396638637,1.60582057499685,0.0431402,3.736e-08,5.028e-09,5.2066e-08,4.0192e-06,3.4119e-05,3.8885e-05,1.0683e-05,0.0,2403,10623.0
20517681,517681,517681 (2015 DE198),Y,Y,18.93,2461200.5,0.5819599844591047,2.06449553070573,0.863041743740332,12.23221503435417,33.15268720673166,218.2084681157663,249.9564123602358,2461531.6933343103,2.96639597248709,0.0407681,1.2027e-08,5.6241e-09,2.5602e-08,4.0555e-06,8.3459e-06,9.8343e-06,1.4691e-06,0.0,999,26146.0
20518640,518640,518640 (2008 KZ5),Y,Y,20.05,2461200.5,0.4543614084849267,1.843902556304526,1.006104393713045,8.360774476273331,142.5400416983246,194.40449417,36.93232411917624,2461106.6769571053,2.50388945910993,0.00263506,1.2707e-08,2.3471e-09,2.3246e-08,2.031e-06,2.1035e-05,2.0082e-05,2.7246e-06,0.0,1234,5701.0
20518678,518678,518678 (2008 UZ94),Y,Y,17.38,2461200.5,0.5722836235361237,2.190992444387236,0.9371233491730396,30.25143979556629,248.2212643695998,159.7180791142407,145.2981348614783,2460722.4016053686,3.24316856670934,0.0268547,2.92e-08,6.5102e-09,6.4431e-08,9.8458e-06,1.3778e-05,1.657e-05,3.3919e-06,0.0,386,5306.0
